start=new Date('2022-09-26T00:00:00.000Z').valueOf();
sats=[{"MEAN_ANOMALY":"311.6009","OBJECT_TYPE":"PAYLOAD","REV_AT_EPOCH":"3842","OBJECT_NAME":"STARLINK-3375","MEAN_MOTION_DDOT":"0.0000000000000","GP_ID":"213446931","TLE_LINE2":"2 51114  53.2166 192.6389 0001700  48.5129 311.6009 15.08856565 38428","DECAY_DATE":null,"COUNTRY_CODE":"US","APOAPSIS":"540.871","TLE_LINE1":"1 51114U 22005L   22268.09798247 -.00000973  00000-0 -43017-4 0  9997","SEMIMAJOR_AXIS":"6917.830","BSTAR":"-0.00004301700000","CLASSIFICATION_TYPE":"U","RA_OF_ASC_NODE":"192.6389","MEAN_ELEMENT_THEORY":"SGP4","MEAN_MOTION":"15.08856565","ECCENTRICITY":"0.00017000","EPOCH":"2022-09-25T02:21:05.685408","ELEMENT_SET_NO":"999","FILE":"3583351","NORAD_CAT_ID":"51114","OBJECT_ID":"2022-005L","LAUNCH_DATE":"2022-01-19","ARG_OF_PERICENTER":"48.5129","EPHEMERIS_TYPE":"0","PERIAPSIS":"538.519","REF_FRAME":"TEME","TIME_SYSTEM":"UTC","MEAN_MOTION_DOT":"-0.00000973","INCLINATION":"53.2166","RCS_SIZE":"LARGE","SITE":"AFETR","CENTER_NAME":"EARTH","PERIOD":"95.437"},{"INCLINATION":"53.2165","MEAN_MOTION_DOT":"0.00006537","TIME_SYSTEM":"UTC","RCS_SIZE":"LARGE","CENTER_NAME":"EARTH","SITE":"AFETR","PERIOD":"95.437","FILE":"3583828","NORAD_CAT_ID":"51115","OBJECT_ID":"2022-005M","LAUNCH_DATE":"2022-01-19","ARG_OF_PERICENTER":"57.8143","EPHEMERIS_TYPE":"0","PERIAPSIS":"538.458","REF_FRAME":"TEME","APOAPSIS":"541.014","TLE_LINE1":"1 51115U 22005M   22268.86711192  .00006537  00000-0  42842-3 0  9991","BSTAR":"0.00042842000000","SEMIMAJOR_AXIS":"6917.871","DECAY_DATE":null,"COUNTRY_CODE":"US","RA_OF_ASC_NODE":"189.1633","CLASSIFICATION_TYPE":"U","MEAN_ELEMENT_THEORY":"SGP4","ELEMENT_SET_NO":"999","MEAN_MOTION":"15.08843057","ECCENTRICITY":"0.00018480","EPOCH":"2022-09-25T20:48:38.469888","MEAN_ANOMALY":"302.3028","OBJECT_TYPE":"PAYLOAD","REV_AT_EPOCH":"3853","OBJECT_NAME":"STARLINK-3397","TLE_LINE2":"2 51115  53.2165 189.1633 0001848  57.8143 302.3028 15.08843057 38535","GP_ID":"213507989","MEAN_MOTION_DDOT":"0.0000000000000"},{"SITE":"AFETR","CENTER_NAME":"EARTH","PERIOD":"95.439","TIME_SYSTEM":"UTC","INCLINATION":"53.2180","MEAN_MOTION_DOT":"-0.00001508","RCS_SIZE":"LARGE","EPHEMERIS_TYPE":"0","REF_FRAME":"TEME","PERIAPSIS":"538.652","NORAD_CAT_ID":"51116","FILE":"3583351","LAUNCH_DATE":"2022-01-19","OBJECT_ID":"2022-005N","ARG_OF_PERICENTER":"51.3390","MEAN_ELEMENT_THEORY":"SGP4","MEAN_MOTION":"15.08822856","EPOCH":"2022-09-25T05:16:00.335712","ECCENTRICITY":"0.00016560","ELEMENT_SET_NO":"999","DECAY_DATE":null,"COUNTRY_CODE":"US","APOAPSIS":"540.943","TLE_LINE1":"1 51116U 22005N   22268.21944833 -.00001508  00000-0 -76693-4 0  9998","BSTAR":"-0.00007669300000","SEMIMAJOR_AXIS":"6917.933","CLASSIFICATION_TYPE":"U","RA_OF_ASC_NODE":"192.0773","MEAN_MOTION_DDOT":"0.0000000000000","TLE_LINE2":"2 51116  53.2180 192.0773 0001656  51.3390 308.7750 15.08822856 38436","GP_ID":"213445430","MEAN_ANOMALY":"308.7750","OBJECT_TYPE":"PAYLOAD","REV_AT_EPOCH":"3843","OBJECT_NAME":"STARLINK-3243"},{"OBJECT_TYPE":"PAYLOAD","MEAN_ANOMALY":"288.2727","REV_AT_EPOCH":"3841","OBJECT_NAME":"STARLINK-3391","GP_ID":"213445680","TLE_LINE2":"2 51117  53.2179 192.8036 0001272  71.8403 288.2727 15.08848226 38414","MEAN_MOTION_DDOT":"0.0000000000000","TLE_LINE1":"1 51117U 22005P   22268.05750019  .00001887  00000-0  13660-3 0  9994","BSTAR":"0.00013660000000","SEMIMAJOR_AXIS":"6917.855","APOAPSIS":"540.600","COUNTRY_CODE":"US","DECAY_DATE":null,"RA_OF_ASC_NODE":"192.8036","CLASSIFICATION_TYPE":"U","MEAN_ELEMENT_THEORY":"SGP4","ELEMENT_SET_NO":"999","EPOCH":"2022-09-25T01:22:48.016416","ECCENTRICITY":"0.00012720","MEAN_MOTION":"15.08848226","NORAD_CAT_ID":"51117","FILE":"3583351","ARG_OF_PERICENTER":"71.8403","LAUNCH_DATE":"2022-01-19","OBJECT_ID":"2022-005P","EPHEMERIS_TYPE":"0","PERIAPSIS":"538.840","REF_FRAME":"TEME","INCLINATION":"53.2179","MEAN_MOTION_DOT":"0.00001887","TIME_SYSTEM":"UTC","RCS_SIZE":"LARGE","CENTER_NAME":"EARTH","SITE":"AFETR","PERIOD":"95.437"},{"TIME_SYSTEM":"UTC","MEAN_MOTION_DOT":"0.00000878","INCLINATION":"53.2167","RCS_SIZE":"LARGE","SITE":"AFETR","CENTER_NAME":"EARTH","PERIOD":"95.437","FILE":"3583351","NORAD_CAT_ID":"51118","LAUNCH_DATE":"2022-01-19","OBJECT_ID":"2022-005Q","ARG_OF_PERICENTER":"45.1410","EPHEMERIS_TYPE":"0","REF_FRAME":"TEME","PERIAPSIS":"538.384","COUNTRY_CODE":"US","DECAY_DATE":null,"APOAPSIS":"541.086","TLE_LINE1":"1 51118U 22005Q   22268.07590416  .00000878  00000-0  73243-4 0  9993","BSTAR":"0.00007324300000","SEMIMAJOR_AXIS":"6917.870","CLASSIFICATION_TYPE":"U","RA_OF_ASC_NODE":"192.7191","MEAN_ELEMENT_THEORY":"SGP4","MEAN_MOTION":"15.08843412","EPOCH":"2022-09-25T01:49:18.119424","ECCENTRICITY":"0.00019530","ELEMENT_SET_NO":"999","MEAN_ANOMALY":"314.9740","OBJECT_TYPE":"PAYLOAD","OBJECT_NAME":"STARLINK-3394","REV_AT_EPOCH":"3841","MEAN_MOTION_DDOT":"0.0000000000000","GP_ID":"213446431","TLE_LINE2":"2 51118  53.2167 192.7191 0001953  45.1410 314.9740 15.08843412 38415"},{"CENTER_NAME":"EARTH","SITE":"AFETR","PERIOD":"95.437","INCLINATION":"53.2183","MEAN_MOTION_DOT":"0.00002855","TIME_SYSTEM":"UTC","RCS_SIZE":"LARGE","EPHEMERIS_TYPE":"0","REF_FRAME":"TEME","PERIAPSIS":"538.501","NORAD_CAT_ID":"51119","FILE":"3583351","OBJECT_ID":"2022-005R","LAUNCH_DATE":"2022-01-19","ARG_OF_PERICENTER":"49.6861","MEAN_ELEMENT_THEORY":"SGP4","ELEMENT_SET_NO":"999","MEAN_MOTION":"15.08848981","EPOCH":"2022-09-25T02:52:53.252256","ECCENTRICITY":"0.00017590","APOAPSIS":"540.935","TLE_LINE1":"1 51119U 22005R   22268.12006079  .00002855  00000-0  19737-3 0  9991","SEMIMAJOR_AXIS":"6917.853","BSTAR":"0.00019737000000","COUNTRY_CODE":"US","DECAY_DATE":null,"RA_OF_ASC_NODE":"192.5371","CLASSIFICATION_TYPE":"U","TLE_LINE2":"2 51119  53.2183 192.5371 0001759  49.6861 310.4285 15.08848981 38427","GP_ID":"213446681","MEAN_MOTION_DDOT":"0.0000000000000","MEAN_ANOMALY":"310.4285","OBJECT_TYPE":"PAYLOAD","REV_AT_EPOCH":"3842","OBJECT_NAME":"STARLINK-3390"},{"REF_FRAME":"TEME","PERIAPSIS":"538.288","EPHEMERIS_TYPE":"0","ARG_OF_PERICENTER":"50.0193","LAUNCH_DATE":"2022-01-19","OBJECT_ID":"2022-005S","NORAD_CAT_ID":"51120","FILE":"3583351","PERIOD":"95.437","CENTER_NAME":"EARTH","SITE":"AFETR","RCS_SIZE":"LARGE","MEAN_MOTION_DOT":"0.00003766","INCLINATION":"53.2160","TIME_SYSTEM":"UTC","TLE_LINE2":"2 51120  53.2160 190.7877 0002080  50.0193 310.0981 15.08846027 38481","GP_ID":"213445931","MEAN_MOTION_DDOT":"0.0000000000000","OBJECT_NAME":"STARLINK-3398","REV_AT_EPOCH":"3848","OBJECT_TYPE":"PAYLOAD","MEAN_ANOMALY":"310.0981","ELEMENT_SET_NO":"999","ECCENTRICITY":"0.00020800","EPOCH":"2022-09-25T12:14:37.082688","MEAN_MOTION":"15.08846027","MEAN_ELEMENT_THEORY":"SGP4","RA_OF_ASC_NODE":"190.7877","CLASSIFICATION_TYPE":"U","TLE_LINE1":"1 51120U 22005S   22268.51015142  .00003766  00000-0  25456-3 0  9994","BSTAR":"0.00025456000000","SEMIMAJOR_AXIS":"6917.862","APOAPSIS":"541.166","COUNTRY_CODE":"US","DECAY_DATE":null},{"OBJECT_NAME":"STARLINK-3399","REV_AT_EPOCH":"3853","MEAN_ANOMALY":"316.0850","OBJECT_TYPE":"PAYLOAD","GP_ID":"213506991","TLE_LINE2":"2 51121  53.2168 189.2131 0001923  44.0295 316.0850 15.08834354 38534","MEAN_MOTION_DDOT":"0.0000000000000","RA_OF_ASC_NODE":"189.2131","CLASSIFICATION_TYPE":"U","APOAPSIS":"541.093","TLE_LINE1":"1 51121U 22005T   22268.85607298 -.00000584  00000-0 -18578-4 0  9996","BSTAR":"-0.00001857800000","SEMIMAJOR_AXIS":"6917.898","COUNTRY_CODE":"US","DECAY_DATE":null,"ELEMENT_SET_NO":"999","MEAN_MOTION":"15.08834354","ECCENTRICITY":"0.00019230","EPOCH":"2022-09-25T20:32:44.705472","MEAN_ELEMENT_THEORY":"SGP4","LAUNCH_DATE":"2022-01-19","OBJECT_ID":"2022-005T","ARG_OF_PERICENTER":"44.0295","NORAD_CAT_ID":"51121","FILE":"3583828","REF_FRAME":"TEME","PERIAPSIS":"538.432","EPHEMERIS_TYPE":"0","RCS_SIZE":"LARGE","MEAN_MOTION_DOT":"-0.00000584","INCLINATION":"53.2168","TIME_SYSTEM":"UTC","PERIOD":"95.438","CENTER_NAME":"EARTH","SITE":"AFETR"},{"FILE":"3583351","NORAD_CAT_ID":"51122","OBJECT_ID":"2022-005U","LAUNCH_DATE":"2022-01-19","ARG_OF_PERICENTER":"63.0455","EPHEMERIS_TYPE":"0","PERIAPSIS":"538.758","REF_FRAME":"TEME","MEAN_MOTION_DOT":"-0.00000805","INCLINATION":"53.2181","TIME_SYSTEM":"UTC","RCS_SIZE":"LARGE","CENTER_NAME":"EARTH","SITE":"AFETR","PERIOD":"95.438","MEAN_ANOMALY":"297.0687","OBJECT_TYPE":"PAYLOAD","OBJECT_NAME":"STARLINK-3373","REV_AT_EPOCH":"3842","TLE_LINE2":"2 51122  53.2181 192.5579 0001465  63.0455 297.0687 15.08831431 38420","GP_ID":"213446932","MEAN_MOTION_DDOT":"0.0000000000000","APOAPSIS":"540.785","SEMIMAJOR_AXIS":"6917.907","TLE_LINE1":"1 51122U 22005U   22268.11639636 -.00000805  00000-0 -32478-4 0  9998","BSTAR":"-0.00003247800000","DECAY_DATE":null,"COUNTRY_CODE":"US","RA_OF_ASC_NODE":"192.5579","CLASSIFICATION_TYPE":"U","MEAN_ELEMENT_THEORY":"SGP4","ELEMENT_SET_NO":"999","MEAN_MOTION":"15.08831431","ECCENTRICITY":"0.00014650","EPOCH":"2022-09-25T02:47:36.645504"},{"TLE_LINE1":"1 51123U 22005V   22268.10902368  .00001819  00000-0  13237-3 0  9998","SEMIMAJOR_AXIS":"6917.862","BSTAR":"0.00013237000000","APOAPSIS":"541.219","COUNTRY_CODE":"US","DECAY_DATE":null,"RA_OF_ASC_NODE":"192.5903","CLASSIFICATION_TYPE":"U","MEAN_ELEMENT_THEORY":"SGP4","ELEMENT_SET_NO":"999","EPOCH":"2022-09-25T02:36:59.645952","ECCENTRICITY":"0.00021560","MEAN_MOTION":"15.08845989","OBJECT_TYPE":"PAYLOAD","MEAN_ANOMALY":"317.1617","REV_AT_EPOCH":"3842","OBJECT_NAME":"STARLINK-3392","TLE_LINE2":"2 51123  53.2171 192.5903 0002156  42.9543 317.1617 15.08845989 38423","GP_ID":"213447182","MEAN_MOTION_DDOT":"0.0000000000000","MEAN_MOTION_DOT":"0.00001819","INCLINATION":"53.2171","TIME_SYSTEM":"UTC","RCS_SIZE":"LARGE","CENTER_NAME":"EARTH","SITE":"AFETR","PERIOD":"95.437","NORAD_CAT_ID":"51123","FILE":"3583351","ARG_OF_PERICENTER":"42.9543","LAUNCH_DATE":"2022-01-19","OBJECT_ID":"2022-005V","EPHEMERIS_TYPE":"0","PERIAPSIS":"538.236","REF_FRAME":"TEME"}];
